tutorial_stride
version=1
nRows=381
nColumns=12
inDegrees=no
endheader
time	hip_flexion_r	knee_angle_r	ankle_angle_r	tib_ant_r.ankle_angle_r.moment	tibia_r.ang_vel_z	toes_r.pos_y	ankle_angle_r.moment	leg1_r.grf_norm_y	leg1_r.cop_x	leg1_r.cop_y	leg1_r.cop_z
3.6	0.766318	-1.16197	-0.031226	7.39998	5.5397	0.0582524	1.28753	-0.0	0.0	0.0	0.0
3.605	0.772504	-1.14085	-0.0308483	7.2432	5.64001	0.0554908	1.31469	-0.0	0.0	0.0	0.0
3.61	0.778097	-1.11868	-0.0306876	7.09405	5.7327	0.0528545	1.34155	-0.0	0.0	0.0	0.0
3.615	0.7831	-1.0955	-0.0307379	6.95327	5.81861	0.0503634	1.3689	-0.0	0.0	0.0	0.0
3.62	0.787515	-1.07132	-0.0309967	6.82219	5.90122	0.0480352	1.39862	-0.0	0.0	0.0	0.0
3.625	0.791325	-1.04614	-0.0314664	6.70343	5.98241	0.0458803	1.43477	-0.0	0.0	0.0	0.0
3.63	0.794523	-1.01997	-0.0321456	6.5967	6.06201	0.0439126	1.47663	-0.0	0.0	0.0	0.0
3.635	0.797099	-0.992799	-0.033027	6.5009	6.13991	0.0421461	1.5217	-0.0	0.0	0.0	0.0
3.64	0.799041	-0.964627	-0.0340977	6.41474	6.21577	0.0405952	1.5668	-0.0	0.0	0.0	0.0
3.645	0.80034	-0.935463	-0.0353412	6.33696	6.28886	0.0392757	1.609	-0.0	0.0	0.0	0.0
3.65	0.800976	-0.905304	-0.0367418	6.26832	6.35849	0.038201	1.64914	-0.0	0.0	0.0	0.0
3.655	0.800938	-0.874164	-0.0382835	6.20881	6.42416	0.0373863	1.68795	-0.0	0.0	0.0	0.0
3.66	0.800215	-0.842058	-0.039952	6.15934	6.48553	0.0368456	1.72748	-0.0	0.0	0.0	0.0
3.665	0.7988	-0.809008	-0.0417308	6.11983	6.5422	0.0365932	1.76775	-0.0	0.0	0.0	0.0
3.67	0.796729	-0.775056	-0.0437366	6.12955	6.60499	0.0366326	1.05727	-0.0	0.0	0.0	0.0
3.675	0.794383	-0.740364	-0.0469297	6.34427	6.66719	0.0369097	2.31766	-0.0	0.0	0.0	0.0
3.68	0.791663	-0.704938	-0.0498097	6.31353	6.71037	0.0375905	2.46211	-0.0	0.0	0.0	0.0
3.685	0.78845	-0.668773	-0.0519667	6.16301	6.74877	0.0387244	2.13186	-0.0	0.0	0.0	0.0
3.69	0.784689	-0.631862	-0.0539388	6.12904	6.78567	0.0402547	1.9374	-0.0	0.0	0.0	0.0
3.695	0.780355	-0.59422	-0.0560921	6.25715	6.81586	0.0421406	2.01518	-0.0	0.0	0.0	0.0
3.7	0.775432	-0.555899	-0.0583284	6.46594	6.83528	0.0443938	2.18174	-0.0	0.0	0.0	0.0
3.705	0.769916	-0.516968	-0.0603745	6.67215	6.84305	0.047045	2.26202	-0.0	0.0	0.0	0.0
3.71	0.763821	-0.477505	-0.0620962	6.8409	6.84069	0.0501081	2.22899	-0.0	0.0	0.0	0.0
3.715	0.757169	-0.437589	-0.0635523	6.98439	6.82909	0.0535717	2.15445	-0.0	0.0	0.0	0.0
3.72	0.749989	-0.397303	-0.0648659	7.12594	6.8074	0.0574125	2.11286	-0.0	0.0	0.0	0.0
3.725	0.742322	-0.356747	-0.0660978	7.26665	6.77355	0.0616128	2.10945	-0.0	0.0	0.0	0.0
3.73	0.734205	-0.316031	-0.0672286	7.38906	6.72441	0.0661579	2.10635	-0.0	0.0	0.0	0.0
3.735	0.725679	-0.275282	-0.068223	7.48088	6.65444	0.0710366	2.09614	-0.0	0.0	0.0	0.0
3.74	0.716775	-0.234632	-0.0690331	7.53459	6.56352	0.0762322	2.06321	-0.0	0.0	0.0	0.0
3.745	0.707521	-0.19421	-0.0696181	7.55182	6.45297	0.0817189	2.0016	-0.0	0.0	0.0	0.0
3.75	0.697953	-0.154128	-0.0699631	7.54304	6.3249	0.0874693	1.9219	-0.0	0.0	0.0	0.0
3.755	0.688105	-0.114493	-0.0700647	7.51693	6.18747	0.0934431	1.82278	-0.0	0.0	0.0	0.0
3.76	0.678423	-0.0763474	-0.0691544	7.24393	5.27867	0.0995952	1.12847	-0.0	0.0	0.0	0.0
3.765	0.674074	-0.052348	-0.0584617	4.8797	3.3159	0.105433	-4.56463	-0.0	0.0	0.0	0.0
3.77	0.674087	-0.0396069	-0.0473407	3.98313	2.27829	0.10989	-5.66549	-0.0	0.0	0.0	0.0
3.775	0.6764	-0.0330134	-0.0416848	4.73134	1.64307	0.112744	-2.7825	-0.0	0.0	0.0	0.0
3.78	0.679891	-0.0301749	-0.0387444	5.56597	1.19773	0.114604	-0.433889	-0.0	0.0	0.0	0.0
3.785	0.683871	-0.0297326	-0.0355237	5.8543	0.885449	0.115998	0.226171	-0.0	0.0	0.0	0.0
3.79	0.687861	-0.0306527	-0.0314825	5.78467	0.677603	0.117114	0.0386644	-0.0	0.0	0.0	0.0
3.795	0.691564	-0.0322301	-0.0273542	5.69442	0.53473	0.117943	-0.073138	-0.0	0.0	0.0	0.0
3.8	0.69483	-0.0341013	-0.0235891	5.67096	0.422366	0.11847	0.040645	-0.0	0.0	0.0	0.0
3.805	0.697583	-0.0361022	-0.0201457	5.65337	0.323035	0.118717	0.17569	-0.0	0.0	0.0	0.0
3.81	0.699785	-0.0381461	-0.0168577	5.59429	0.231928	0.118714	0.213883	-0.0	0.0	0.0	0.0
3.815	0.701411	-0.0401755	-0.0136942	5.50396	0.147069	0.11847	0.194147	-0.0	0.0	0.0	0.0
3.82	0.702467	-0.042159	-0.0107153	5.40645	0.0663737	0.117984	0.18013	-0.0	0.0	0.0	0.0
3.825	0.702967	-0.0440841	-0.00797384	5.31105	-0.0118619	0.117252	0.190292	-0.0	0.0	0.0	0.0
3.83	0.702927	-0.0459466	-0.00547983	5.21341	-0.0883862	0.116278	0.209242	-0.0	0.0	0.0	0.0
3.835	0.702357	-0.0477408	-0.00322614	5.10968	-0.163255	0.115064	0.225655	-0.0	0.0	0.0	0.0
3.84	0.701266	-0.0494573	-0.00120914	4.99906	-0.236649	0.113615	0.236939	-0.0	0.0	0.0	0.0
3.845	0.699654	-0.051088	0.000567827	4.88351	-0.309254	0.111935	0.246935	-0.0	0.0	0.0	0.0
3.85	0.697524	-0.0526304	0.00210558	4.76372	-0.381422	0.110025	0.256135	-0.0	0.0	0.0	0.0
3.855	0.694882	-0.0540838	0.00340542	4.64086	-0.453346	0.107889	0.265767	-0.0	0.0	0.0	0.0
3.86	0.69173	-0.0554472	0.00447645	4.51401	-0.525028	0.10553	0.271106	-0.0	0.0	0.0	0.0
3.865	0.688061	-0.0567186	0.00532616	4.38522	-0.596845	0.102949	0.27486	-0.0	0.0	0.0	0.0
3.87	0.683879	-0.0579031	0.00595446	4.25794	-0.668866	0.100147	0.283826	-0.0	0.0	0.0	0.0
3.875	0.679199	-0.0590092	0.00636652	4.1321	-0.740881	0.0971283	0.295439	-0.0	0.0	0.0	0.0
3.88	0.674025	-0.0600425	0.00656782	4.00924	-0.812699	0.0938961	0.310939	-0.0	0.0	0.0	0.0
3.885	0.668372	-0.0610112	0.00655779	3.89256	-0.886789	0.0904544	0.336124	0.0112746	4.54769	-1.61566e-14	0.10642
3.89	0.662346	-0.0622009	0.00390598	4.34963	-1.06829	0.0864303	1.92724	0.103117	4.54994	-1.61646e-14	0.10642
3.895	0.656246	-0.0646336	-0.00921298	6.1225	-1.42524	0.0805732	5.97536	0.229763	4.55182	-1.61713e-14	0.10642
3.9	0.65038	-0.0685647	-0.0373004	7.99302	-1.48813	0.0723125	7.99302	0.341297	4.55576	-1.61853e-14	0.10642
3.905	0.644801	-0.071544	-0.0754696	9.0886	-1.23639	0.0630622	9.0886	0.397236	4.55739	-1.61911e-14	0.10642
3.91	0.640053	-0.0738543	-0.123093	10.0299	-1.04597	0.0530414	10.0299	0.39188	4.55914	-1.61973e-14	0.10642
3.915	0.636459	-0.0761923	-0.17906	10.6956	-0.950434	0.0423388	10.6956	0.348156	4.56101	-1.6204e-14	0.10642
3.92	0.634058	-0.0790853	-0.240884	11.1093	-0.943259	0.0311849	11.1093	0.293409	4.563	-1.6211e-14	0.10642
3.925	0.632692	-0.08284	-0.305477	12.5249	-1.02175	0.0198922	12.5249	0.249306	4.56501	-1.62182e-14	0.10642
3.93	0.632497	-0.0899998	-0.354017	12.2604	-2.64936	0.0103167	12.2604	1.12588	4.68304	-1.66375e-14	0.117707
3.935	0.636039	-0.111373	-0.330401	5.29113	-4.22709	0.0077931	5.29113	1.30828	4.62087	-1.64166e-14	0.111568
3.94	0.642932	-0.137729	-0.295751	2.61531	-4.22953	0.0068804	2.61531	1.46482	4.61831	-1.64075e-14	0.11136
3.945	0.65286	-0.166372	-0.266076	3.39361	-4.32378	0.00617922	3.39361	1.44225	4.61762	-1.64051e-14	0.111316
3.95	0.66564	-0.197846	-0.237762	4.86049	-4.48725	0.00602072	4.86049	1.28816	4.61435	-1.63935e-14	0.110991
3.955	0.680652	-0.231807	-0.209641	6.32288	-4.62114	0.00646659	6.32288	1.06219	4.60987	-1.63776e-14	0.110528
3.96	0.697245	-0.267513	-0.181641	7.44438	-4.68923	0.00748813	7.44438	0.829815	4.60391	-1.63564e-14	0.109913
3.965	0.7141	-0.303296	-0.154444	8.22911	-4.52395	0.00890799	8.22911	0.656145	4.59926	-1.63399e-14	0.109509
3.97	0.729456	-0.336585	-0.129405	8.97576	-4.27594	0.0104422	8.97576	0.551788	4.59353	-1.63195e-14	0.108927
3.975	0.74277	-0.366996	-0.105575	9.43809	-4.02958	0.0120468	9.43809	0.484841	4.58648	-1.62945e-14	0.108222
3.98	0.753616	-0.393915	-0.0836303	9.90078	-3.67992	0.0135491	9.90078	0.447342	4.58088	-1.62746e-14	0.107699
3.985	0.761524	-0.41648	-0.0651735	10.7334	-3.26388	0.014675	7.08744	0.4232	4.57811	-1.62647e-14	0.107397
3.99	0.766385	-0.434072	-0.0538846	12.7471	-2.75241	0.0149444	7.25919	0.406914	4.58205	-1.62787e-14	0.107771
3.995	0.768236	-0.446885	-0.047606	14.7745	-2.3838	0.0145525	9.96389	0.444671	4.5889	-1.6303e-14	0.108443
4.0	0.767292	-0.455888	-0.0408942	15.3571	-2.15868	0.0140746	10.4936	0.506442	4.59247	-1.63157e-14	0.108761
4.005	0.764044	-0.461886	-0.0326014	14.8068	-1.9582	0.013657	9.53131	0.567139	4.59453	-1.63231e-14	0.108927
4.01	0.75899	-0.465287	-0.024256	14.0559	-1.75637	0.0131719	8.21442	0.628133	4.59786	-1.63349e-14	0.109227
4.015	0.752621	-0.466537	-0.0169439	13.4992	-1.58014	0.0125423	6.46122	0.691433	4.60285	-1.63526e-14	0.109693
4.02	0.745479	-0.466329	-0.0105952	13.02	-1.46423	0.0118215	4.84402	0.752299	4.6079	-1.63706e-14	0.110169
4.025	0.738027	-0.465397	-0.00424793	12.3052	-1.41684	0.0111535	3.46908	0.802227	4.61089	-1.63812e-14	0.110448
4.03	0.730652	-0.464308	0.00249904	11.3682	-1.39594	0.0106104	1.99467	0.836118	4.61296	-1.63885e-14	0.110639
4.035	0.723593	-0.46332	0.00930439	10.4325	-1.38126	0.0101673	0.585869	0.857125	4.61501	-1.63958e-14	0.110831
4.04	0.716956	-0.462534	0.0159207	9.60083	-1.36801	0.00979753	-0.719792	0.869174	4.6171	-1.64032e-14	0.111028
4.045	0.710773	-0.461974	0.0222926	8.87338	-1.35444	0.00948949	-1.98787	0.875538	4.61908	-1.64103e-14	0.111214
4.05	0.705008	-0.4616	0.0283944	8.23919	-1.33719	0.00922773	-3.24288	0.879464	4.62108	-1.64174e-14	0.1114
4.055	0.699604	-0.461349	0.034236	7.67703	-1.31667	0.00899905	-4.39036	0.883054	4.62294	-1.6424e-14	0.111572
4.06	0.694487	-0.461145	0.0398803	7.15998	-1.29231	0.00879675	-5.43133	0.887536	4.62459	-1.64298e-14	0.111722
4.065	0.689572	-0.460904	0.0453799	6.67549	-1.26346	0.00861406	-6.39722	0.894176	4.626	-1.64349e-14	0.111848
4.07	0.684778	-0.460535	0.0507574	6.22375	-1.22926	0.00844202	-7.35892	0.903307	4.62727	-1.64394e-14	0.11196
4.075	0.680027	-0.459955	0.0559961	5.81201	-1.19025	0.00827258	-8.35506	0.91456	4.62848	-1.64437e-14	0.112064
4.08	0.675263	-0.45911	0.0610935	5.43728	-1.15045	0.00810141	-9.35254	0.927763	4.62958	-1.64476e-14	0.112157
4.085	0.670443	-0.457986	0.0660817	5.08865	-1.11297	0.00792796	-10.3295	0.942484	4.63054	-1.6451e-14	0.112237
4.09	0.665549	-0.456595	0.0709889	4.76139	-1.07833	0.00775407	-11.2616	0.957469	4.63137	-1.64539e-14	0.112306
4.095	0.660573	-0.454953	0.0758253	4.4567	-1.0455	0.0075842	-12.1542	0.971211	4.63214	-1.64567e-14	0.112368
4.1	0.655506	-0.453064	0.0805726	4.17986	-1.0137	0.00742194	-13.0339	0.982927	4.63288	-1.64593e-14	0.112428
4.105	0.65034	-0.450934	0.0852045	3.93278	-0.983875	0.00726958	-13.9049	0.992577	4.63363	-1.6462e-14	0.112489
4.11	0.64507	-0.448584	0.0897079	3.71143	-0.957161	0.00712814	-14.7704	1.00051	4.63439	-1.64647e-14	0.112552
4.115	0.639689	-0.44604	0.0940781	3.51119	-0.933681	0.00699706	-15.6254	1.00708	4.63516	-1.64674e-14	0.112617
4.12	0.634184	-0.443315	0.0983127	3.32948	-0.91321	0.00687513	-16.4569	1.01235	4.63598	-1.64703e-14	0.112686
4.125	0.628546	-0.440426	0.102415	3.16241	-0.894408	0.00676258	-17.2704	1.01606	4.63679	-1.64732e-14	0.112755
4.13	0.622757	-0.437374	0.106383	3.00993	-0.877065	0.00665925	-18.0699	1.0183	4.63764	-1.64762e-14	0.112829
4.135	0.616806	-0.43416	0.110216	2.87002	-0.860803	0.006565	-18.8663	1.01921	4.63853	-1.64794e-14	0.112907
4.14	0.610678	-0.430785	0.11391	2.74241	-0.844796	0.00647926	-19.6652	1.01865	4.63949	-1.64828e-14	0.112991
4.145	0.604366	-0.427235	0.117438	2.6313	-0.827061	0.00640265	-20.4489	1.01552	4.64053	-1.64865e-14	0.113085
4.15	0.597848	-0.423498	0.120811	2.5285	-0.811161	0.00633573	-21.2349	1.01252	4.64155	-1.64901e-14	0.113175
4.155	0.591087	-0.419568	0.124056	2.43008	-0.797819	0.00627376	-22.0313	1.01012	4.64259	-1.64938e-14	0.113267
4.16	0.58408	-0.415455	0.127176	2.33765	-0.78537	0.00621529	-22.8286	1.00639	4.64371	-1.64978e-14	0.113368
4.165	0.576835	-0.411166	0.130159	2.25491	-0.772915	0.00616194	-23.6162	1.0008	4.64493	-1.65021e-14	0.113478
4.17	0.569358	-0.406704	0.133003	2.17951	-0.760928	0.00611504	-24.3985	0.994112	4.64618	-1.65065e-14	0.113591
4.175	0.561651	-0.402072	0.13572	2.10883	-0.749377	0.00607451	-25.1884	0.986908	4.64748	-1.65112e-14	0.11371
4.18	0.55371	-0.397269	0.138306	2.04427	-0.737872	0.00603874	-25.9852	0.979134	4.64885	-1.6516e-14	0.113835
4.185	0.54554	-0.392297	0.140762	1.98553	-0.726694	0.00600721	-26.7879	0.970702	4.65032	-1.65213e-14	0.11397
4.19	0.537148	-0.387157	0.143088	1.93169	-0.715363	0.00597973	-27.5939	0.961657	4.65185	-1.65267e-14	0.11411
4.195	0.528536	-0.381847	0.145284	1.88302	-0.703914	0.00595556	-28.3989	0.952211	4.65344	-1.65323e-14	0.114256
4.2	0.519712	-0.37637	0.147358	1.83755	-0.692271	0.00593476	-29.2083	0.942414	4.65506	-1.65381e-14	0.114407
4.205	0.510684	-0.370728	0.149312	1.79556	-0.680799	0.00591689	-30.0226	0.932426	4.65679	-1.65442e-14	0.114565
4.21	0.501461	-0.364922	0.15115	1.75678	-0.669211	0.00590138	-30.8429	0.922272	4.65857	-1.65506e-14	0.11473
4.215	0.492049	-0.358952	0.152873	1.72147	-0.657399	0.00588733	-31.6695	0.91205	4.6604	-1.65571e-14	0.114899
4.22	0.482459	-0.352821	0.154486	1.68859	-0.645231	0.00587456	-32.5082	0.901848	4.66227	-1.65637e-14	0.115073
4.225	0.472702	-0.34653	0.155993	1.65842	-0.633263	0.00586245	-33.3617	0.891893	4.66425	-1.65707e-14	0.115255
4.23	0.462781	-0.34008	0.157395	1.63082	-0.620818	0.00584982	-34.2328	0.882135	4.66625	-1.65779e-14	0.115441
4.235	0.452709	-0.333471	0.158696	1.60521	-0.608305	0.00583646	-35.127	0.872744	4.66833	-1.65852e-14	0.115634
4.24	0.442489	-0.326702	0.159896	1.58243	-0.59546	0.00582087	-36.0441	0.863786	4.67045	-1.65928e-14	0.115831
4.245	0.432129	-0.319775	0.161	1.56135	-0.582403	0.00580273	-36.9894	0.855307	4.67262	-1.66005e-14	0.116032
4.25	0.421636	-0.312688	0.162011	1.54191	-0.569292	0.0057815	-37.9632	0.847407	4.67485	-1.66084e-14	0.116239
4.255	0.411014	-0.305441	0.162931	1.5244	-0.555877	0.00575614	-38.9636	0.840089	4.6771	-1.66164e-14	0.116449
4.26	0.400267	-0.298035	0.163765	1.50786	-0.542495	0.00572672	-39.992	0.833425	4.67941	-1.66246e-14	0.116663
4.265	0.389399	-0.290465	0.164517	1.49282	-0.528792	0.00569233	-41.0461	0.827411	4.68173	-1.66328e-14	0.116878
4.27	0.378411	-0.282731	0.165191	1.47859	-0.514848	0.00565304	-42.1274	0.822061	4.68405	-1.66411e-14	0.117094
4.275	0.367307	-0.27483	0.165792	1.46523	-0.500802	0.00560884	-43.2357	0.817462	4.68641	-1.66495e-14	0.117313
4.28	0.356084	-0.266755	0.166321	1.4533	-0.486214	0.0055589	-44.3691	0.813568	4.68875	-1.66578e-14	0.117531
4.285	0.344741	-0.258503	0.166781	1.44226	-0.471131	0.00550348	-45.529	0.810389	4.69108	-1.66661e-14	0.117747
4.29	0.333276	-0.250064	0.167174	1.43244	-0.455345	0.00544246	-46.7143	0.807925	4.6934	-1.66743e-14	0.117962
4.295	0.321684	-0.241428	0.167498	1.42406	-0.438751	0.00537596	-47.9238	0.806185	4.69571	-1.66825e-14	0.118177
4.3	0.309954	-0.23258	0.167748	1.41801	-0.420811	0.00530392	-49.1541	0.805043	4.698	-1.66906e-14	0.11839
4.305	0.298074	-0.223501	0.16792	1.41424	-0.401401	0.00522669	-50.4036	0.804398	4.70026	-1.66987e-14	0.1186
4.31	0.286033	-0.21417	0.168005	1.41315	-0.380214	0.00514488	-51.6699	0.804204	4.70249	-1.67066e-14	0.118807
4.315	0.273815	-0.204564	0.167992	1.41502	-0.357106	0.00505916	-52.9507	0.804438	4.70472	-1.67145e-14	0.119014
4.32	0.261399	-0.194652	0.167868	1.42078	-0.331531	0.0049698	-54.2419	0.804984	4.70693	-1.67224e-14	0.119219
4.325	0.24876	-0.1844	0.167618	1.43033	-0.303222	0.00487744	-55.5422	0.805719	4.70911	-1.67301e-14	0.119423
4.33	0.235868	-0.173769	0.167224	1.44428	-0.271753	0.00478294	-56.8483	0.806534	4.71128	-1.67378e-14	0.119625
4.335	0.222692	-0.162716	0.166664	1.46327	-0.236916	0.00468731	-58.1565	0.807406	4.71349	-1.67457e-14	0.119829
4.34	0.209195	-0.15119	0.165912	1.4881	-0.198106	0.00459106	-59.4628	0.808002	4.71568	-1.67534e-14	0.120034
4.345	0.195343	-0.139144	0.16494	1.51899	-0.155408	0.00449576	-60.7648	0.8084	4.71794	-1.67615e-14	0.120244
4.35	0.181102	-0.126532	0.163716	1.55559	-0.108395	0.00440311	-62.0603	0.808146	4.72026	-1.67697e-14	0.12046
4.355	0.166429	-0.113287	0.162199	1.60142	-0.0561392	0.00431335	-63.3381	0.8073	4.72265	-1.67782e-14	0.120683
4.36	0.151257	-0.0993308	0.160349	1.65485	0.000824698	0.00422723	-64.5984	0.805547	4.72514	-1.67871e-14	0.120916
4.365	0.13561	-0.084736	0.158241	1.68475	-0.0723905	0.0041568	-65.9379	0.782389	4.72736	-1.67949e-14	0.121032
4.37	0.121355	-0.0729049	0.158184	1.3752	-0.407371	0.00421866	-68.6792	0.770197	4.72993	-1.68041e-14	0.121279
4.375	0.108731	-0.0638635	0.15859	1.23857	-0.605096	0.00418617	-70.9214	0.784055	4.73405	-1.68187e-14	0.121698
4.38	0.0971002	-0.0565889	0.159349	1.1467	-0.743345	0.00409055	-72.9272	0.793011	4.73753	-1.68311e-14	0.122044
4.385	0.0860655	-0.0504817	0.160509	1.06107	-0.842773	0.00396591	-74.8909	0.799694	4.74071	-1.68424e-14	0.122351
4.39	0.075387	-0.0451795	0.162051	0.980333	-0.916648	0.00382728	-76.8644	0.805258	4.74365	-1.68528e-14	0.122632
4.395	0.0649012	-0.0404304	0.163929	0.908313	-0.974515	0.00368329	-78.8631	0.810565	4.74647	-1.68628e-14	0.122896
4.4	0.054508	-0.0360885	0.166102	0.843816	-1.02206	0.00353681	-80.8937	0.815783	4.74915	-1.68724e-14	0.123147
4.405	0.0441409	-0.0320542	0.168533	0.787284	-1.06404	0.00339029	-82.9428	0.821178	4.75175	-1.68816e-14	0.123389
4.41	0.0337702	-0.0282919	0.171204	0.734861	-1.10496	0.0032441	-85.0133	0.826612	4.75424	-1.68905e-14	0.123621
4.415	0.0233998	-0.0248062	0.174103	0.685674	-1.14779	0.00309872	-87.1278	0.832686	4.75669	-1.68992e-14	0.123848
4.42	0.0130464	-0.0216196	0.177217	0.639768	-1.19192	0.00295245	-89.3164	0.839633	4.7591	-1.69077e-14	0.124071
4.425	0.00272534	-0.0187474	0.180526	0.597501	-1.23656	0.00280425	-91.5499	0.847151	4.76146	-1.69161e-14	0.12429
4.43	-0.00755162	-0.0161999	0.184017	0.557662	-1.2811	0.00265428	-93.7983	0.854831	4.76377	-1.69243e-14	0.124504
4.435	-0.0177753	-0.0139744	0.187676	0.521035	-1.32532	0.00250487	-96.039	0.862559	4.76605	-1.69324e-14	0.124716
4.44	-0.0276711	-0.012274	0.191674	0.460417	-1.38945	0.00235154	-98.3952	0.874393	4.76767	-1.69382e-14	0.124868
4.445	-0.0365131	-0.0115304	0.196284	0.372309	-1.42488	0.00216589	-100.932	0.892377	4.76895	-1.69427e-14	0.124989
4.45	-0.0447412	-0.0112582	0.201076	0.3193	-1.43419	0.00196427	-103.347	0.906996	4.77027	-1.69474e-14	0.12511
4.455	-0.0527516	-0.0110905	0.205847	0.297815	-1.42965	0.00176659	-105.631	0.918233	4.77166	-1.69524e-14	0.125235
4.46	-0.060812	-0.010812	0.210501	0.298055	-1.42059	0.00158323	-107.823	0.926885	4.77318	-1.69577e-14	0.125368
4.465	-0.0690759	-0.0103281	0.214971	0.314592	-1.41303	0.00141905	-109.956	0.933632	4.77484	-1.69636e-14	0.125515
4.47	-0.0776013	-0.00963341	0.219218	0.342911	-1.40939	0.00127654	-112.064	0.939215	4.77664	-1.697e-14	0.125675
4.475	-0.0864102	-0.00875015	0.223203	0.381489	-1.41002	0.00115586	-114.109	0.943543	4.77853	-1.69768e-14	0.125845
4.48	-0.0954976	-0.00771804	0.226921	0.425021	-1.41584	0.0010585	-116.038	0.94718	4.78051	-1.69838e-14	0.126021
4.485	-0.10486	-0.00657559	0.230375	0.470482	-1.42636	0.000986038	-117.814	0.949656	4.78244	-1.69907e-14	0.126194
4.49	-0.114483	-0.00536609	0.233573	0.51544	-1.44174	0.000940325	-119.426	0.95169	4.78422	-1.6997e-14	0.12635
4.495	-0.124339	-0.00414879	0.236533	0.558199	-1.46443	0.000922692	-120.88	0.954405	4.78563	-1.7002e-14	0.126471
4.5	-0.134371	-0.00301774	0.239278	0.597494	-1.49587	0.000933243	-122.177	0.960941	4.7861	-1.70036e-14	0.1265
4.505	-0.144519	-0.00206587	0.24183	0.632887	-1.53447	0.00097217	-123.314	0.967753	4.78625	-1.70042e-14	0.1265
4.51	-0.154731	-0.00136392	0.244208	0.664287	-1.57888	0.00104073	-124.286	0.974151	4.78645	-1.70049e-14	0.1265
4.515	-0.164971	-0.000963944	0.246421	0.69353	-1.6263	0.00114018	-125.085	0.978998	4.78662	-1.70055e-14	0.1265
4.52	-0.175215	-0.000896774	0.248471	0.721994	-1.67567	0.0012719	-125.711	0.982646	4.7868	-1.70061e-14	0.1265
4.525	-0.185444	-0.00118069	0.250361	0.750144	-1.72613	0.00143746	-126.168	0.984966	4.78698	-1.70068e-14	0.1265
4.53	-0.195645	-0.00182526	0.252085	0.778592	-1.77712	0.00163812	-126.463	0.986355	4.7872	-1.70076e-14	0.1265
4.535	-0.205824	-0.00280804	0.253608	0.813536	-1.81955	0.00187302	-126.577	0.987534	4.78737	-1.70081e-14	0.1265
4.54	-0.216044	-0.00400825	0.25486	0.859629	-1.85246	0.00214282	-126.494	0.986658	4.78757	-1.70089e-14	0.1265
4.545	-0.226334	-0.00537163	0.255829	0.909991	-1.88396	0.00245186	-126.243	0.98354	4.7878	-1.70097e-14	0.1265
4.55	-0.236694	-0.00689365	0.256514	0.962399	-1.91501	0.00280147	-125.84	0.97933	4.78805	-1.70106e-14	0.1265
4.555	-0.247121	-0.00856859	0.256902	1.01772	-1.94488	0.00319121	-125.288	0.973889	4.7883	-1.70114e-14	0.1265
4.56	-0.257607	-0.010393	0.256993	1.07259	-1.97554	0.00362179	-124.606	0.967377	4.78857	-1.70124e-14	0.1265
4.565	-0.267996	-0.0124864	0.256771	1.13142	-2.01098	0.00409356	-123.76	0.960226	4.78883	-1.70133e-14	0.1265
4.57	-0.277931	-0.015112	0.256205	1.19554	-2.05607	0.00460815	-122.691	0.951477	4.7891	-1.70143e-14	0.1265
4.575	-0.287056	-0.018534	0.255354	1.25184	-2.10479	0.00516607	-121.425	0.942052	4.78936	-1.70152e-14	0.1265
4.58	-0.295251	-0.0228118	0.254309	1.29187	-2.15436	0.00576254	-120.043	0.932134	4.78962	-1.70161e-14	0.1265
4.585	-0.302366	-0.027995	0.253135	1.32013	-2.19508	0.0063905	-118.579	0.922396	4.78987	-1.7017e-14	0.1265
4.59	-0.308458	-0.0339505	0.251835	1.34545	-2.22204	0.00704598	-117.051	0.911938	4.79014	-1.7018e-14	0.1265
4.595	-0.313689	-0.0404787	0.250387	1.37411	-2.23622	0.00772777	-115.465	0.900532	4.79043	-1.7019e-14	0.1265
4.6	-0.318256	-0.0473814	0.248753	1.40845	-2.24153	0.00843634	-113.831	0.887891	4.79075	-1.70202e-14	0.1265
4.605	-0.321793	-0.0549332	0.246984	1.4337	-2.2705	0.00917234	-112.156	0.876278	4.79103	-1.70212e-14	0.1265
4.61	-0.323136	-0.0638767	0.244924	1.49016	-2.27249	0.00992555	-110.149	0.868154	4.79121	-1.70218e-14	0.1265
4.615	-0.322134	-0.0740802	0.242212	1.60125	-2.23693	0.0107077	-107.594	0.856127	4.79141	-1.70225e-14	0.1265
4.62	-0.319196	-0.0850428	0.238669	1.74382	-2.162	0.0115355	-104.557	0.838494	4.79167	-1.70234e-14	0.1265
4.625	-0.31418	-0.0978299	0.235485	1.66619	-2.45314	0.0125308	-102.031	0.75625	4.79346	-1.70298e-14	0.1265
4.63	-0.30638	-0.114299	0.233127	1.57628	-2.68091	0.013649	-99.6452	0.735141	4.79382	-1.70311e-14	0.1265
4.635	-0.296755	-0.133462	0.230653	1.58288	-2.87957	0.0148169	-96.7549	0.712664	4.79417	-1.70323e-14	0.1265
4.64	-0.286105	-0.15473	0.227714	1.65948	-3.06047	0.0160612	-93.2887	0.685247	4.79458	-1.70338e-14	0.1265
4.645	-0.27491	-0.177785	0.224115	1.76809	-3.24177	0.0174093	-89.2904	0.652467	4.79506	-1.70355e-14	0.1265
4.65	-0.263374	-0.202549	0.219787	1.8907	-3.42629	0.0188791	-84.8412	0.616075	4.79559	-1.70374e-14	0.1265
4.655	-0.251566	-0.229024	0.214598	2.03258	-3.61299	0.0204852	-79.9637	0.576713	4.79617	-1.70394e-14	0.1265
4.66	-0.239426	-0.257274	0.208451	2.18551	-3.80231	0.0222395	-74.7445	0.535114	4.79679	-1.70416e-14	0.1265
4.665	-0.226847	-0.287372	0.20124	2.34972	-3.98523	0.024149	-69.2827	0.492465	4.79744	-1.70439e-14	0.1265
4.67	-0.213753	-0.319316	0.192822	2.53419	-4.15534	0.0262163	-63.6244	0.44927	4.79813	-1.70464e-14	0.1265
4.675	-0.199982	-0.353146	0.183035	2.74148	-4.30792	0.0284417	-57.7455	0.405665	4.79885	-1.70489e-14	0.1265
4.68	-0.185343	-0.388827	0.171743	2.96603	-4.43741	0.0308282	-51.6759	0.361998	4.7996	-1.70516e-14	0.1265
4.685	-0.169662	-0.426304	0.158773	3.21009	-4.53859	0.0333776	-45.3915	0.317981	4.80038	-1.70544e-14	0.1265
4.69	-0.152838	-0.465413	0.143969	3.47318	-4.60022	0.0360927	-38.9488	0.274192	4.80119	-1.70572e-14	0.1265
4.695	-0.134863	-0.505856	0.127161	3.75542	-4.61751	0.0389701	-32.4764	0.230889	4.80203	-1.70602e-14	0.1265
4.7	-0.115737	-0.54735	0.10823	4.04857	-4.592	0.0420094	-26.3367	0.189117	4.80295	-1.70635e-14	0.1265
4.705	-0.0955011	-0.589558	0.0869601	4.36681	-4.51237	0.045195	-21.2576	0.151574	4.804	-1.70672e-14	0.1265
4.71	-0.0742648	-0.632031	0.0629964	4.72435	-4.36463	0.0484881	-16.983	0.120011	4.80512	-1.70712e-14	0.1265
4.715	-0.0521562	-0.6743	0.0360951	5.09253	-4.163	0.0518451	-12.2075	0.0909666	4.80609	-1.70747e-14	0.1265
4.72	-0.0293757	-0.715953	0.00642412	5.42008	-3.92218	0.0552667	-7.39528	0.0635659	4.80701	-1.70779e-14	0.1265
4.725	-0.00612536	-0.756619	-0.0257799	5.69824	-3.64757	0.058752	-3.21064	0.0390969	4.808	-1.70814e-14	0.1265
4.73	0.0174084	-0.795974	-0.0601189	5.88933	-3.34707	0.062294	1.47604	0.0183535	4.80888	-1.70846e-14	0.1265
4.735	0.0410338	-0.833779	-0.0949401	5.85214	-3.03556	0.0659182	3.31467	0.00348313	4.81063	-1.70908e-14	0.1265
4.74	0.0646222	-0.869832	-0.128381	5.55337	-2.7148	0.0695893	4.17147	-0.0	0.0	0.0	0.0
4.745	0.0881113	-0.904151	-0.158344	5.45658	-2.415	0.0732729	4.512	-0.0	0.0	0.0	0.0
4.75	0.111475	-0.936873	-0.183522	6.94396	-2.15729	0.0769227	5.8877	-0.0	0.0	0.0	0.0
4.755	0.134659	-0.968249	-0.200959	8.92953	-1.964	0.0805269	6.99475	-0.0	0.0	0.0	0.0
4.76	0.157632	-0.998557	-0.20837	10.2157	-1.81283	0.0840696	6.55421	-0.0	0.0	0.0	0.0
4.765	0.180415	-1.02791	-0.206448	10.17	-1.65001	0.087499	4.41462	-0.0	0.0	0.0	0.0
4.77	0.203077	-1.0562	-0.198942	9.81099	-1.44288	0.0907396	2.2445	-0.0	0.0	0.0	0.0
4.775	0.225682	-1.0833	-0.189941	10.0223	-1.20331	0.0937282	1.27439	-0.0	0.0	0.0	0.0
4.78	0.248244	-1.10914	-0.181343	10.7413	-0.957608	0.0964415	1.42145	-0.0	0.0	0.0	0.0
4.785	0.270724	-1.13374	-0.172881	11.4325	-0.721492	0.098891	1.88366	-0.0	0.0	0.0	0.0
4.79	0.293058	-1.15709	-0.163637	11.7056	-0.493428	0.101086	1.99558	-0.0	0.0	0.0	0.0
4.795	0.315201	-1.17918	-0.153301	11.5648	-0.263818	0.103034	1.71957	-0.0	0.0	0.0	0.0
4.8	0.337119	-1.19995	-0.142274	11.2756	-0.0282409	0.104725	1.47191	-0.0	0.0	0.0	0.0
4.805	0.358788	-1.21939	-0.130958	10.9866	0.21032	0.106162	1.44618	-0.0	0.0	0.0	0.0
4.81	0.380183	-1.23744	-0.119906	10.8432	0.471832	0.107334	-1.80902	-0.0	0.0	0.0	0.0
4.815	0.401395	-1.25393	-0.11417	12.1258	0.791883	0.108133	-1.47122	-0.0	0.0	0.0	0.0
4.82	0.422364	-1.26881	-0.113328	14.0543	1.05389	0.108548	2.42932	-0.0	0.0	0.0	0.0
4.825	0.442858	-1.28221	-0.110673	14.5291	1.25928	0.108704	3.05203	-0.0	0.0	0.0	0.0
4.83	0.462815	-1.29417	-0.104746	13.7187	1.48173	0.108647	1.16854	-0.0	0.0	0.0	0.0
4.835	0.482302	-1.30458	-0.0986832	13.0588	1.73269	0.108313	0.421849	-0.0	0.0	0.0	0.0
4.84	0.501341	-1.3134	-0.0939776	12.8726	1.97954	0.107671	0.984362	-0.0	0.0	0.0	0.0
4.845	0.519898	-1.32068	-0.0897176	12.6869	2.20995	0.106758	1.37281	-0.0	0.0	0.0	0.0
4.85	0.537933	-1.32645	-0.0851539	12.2996	2.43356	0.105605	1.22548	-0.0	0.0	0.0	0.0
4.855	0.555434	-1.33069	-0.0804898	11.8621	2.65692	0.104211	1.01765	-0.0	0.0	0.0	0.0
4.86	0.572404	-1.3334	-0.0760935	11.5012	2.87749	0.102584	1.01456	-0.0	0.0	0.0	0.0
4.865	0.588838	-1.33461	-0.0719959	11.1939	3.09161	0.100737	1.08886	-0.0	0.0	0.0	0.0
4.87	0.60472	-1.33433	-0.0680766	10.8888	3.29895	0.098686	1.11103	-0.0	0.0	0.0	0.0
4.875	0.620042	-1.33257	-0.0642968	10.5799	3.50059	0.0964501	1.09123	-0.0	0.0	0.0	0.0
4.88	0.634795	-1.32934	-0.0607027	10.286	3.69673	0.0940412	1.08349	-0.0	0.0	0.0	0.0
4.885	0.648983	-1.32467	-0.0573262	10.0122	3.88688	0.0914803	1.09611	-0.0	0.0	0.0	0.0
4.89	0.662596	-1.31858	-0.0541692	9.75355	4.07069	0.0887822	1.11353	-0.0	0.0	0.0	0.0
4.895	0.675633	-1.31107	-0.0512238	9.50513	4.24819	0.0859672	1.12682	-0.0	0.0	0.0	0.0
4.9	0.688087	-1.30218	-0.0484932	9.26662	4.41934	0.0830539	1.13891	-0.0	0.0	0.0	0.0
4.905	0.699963	-1.29194	-0.0459841	9.03835	4.5841	0.080065	1.15322	-0.0	0.0	0.0	0.0
4.91	0.711248	-1.28034	-0.0437047	8.82143	4.74233	0.0770165	1.17218	-0.0	0.0	0.0	0.0
4.915	0.721946	-1.26744	-0.0416532	8.61313	4.89391	0.0739324	1.19101	-0.0	0.0	0.0	0.0
4.92	0.732052	-1.25324	-0.0398319	8.41385	5.03881	0.070833	1.21176	-0.0	0.0	0.0	0.0
4.925	0.741564	-1.23777	-0.0382416	8.22304	5.17687	0.0677392	1.23405	-0.0	0.0	0.0	0.0
4.93	0.750483	-1.22107	-0.0368796	8.03937	5.30795	0.064675	1.25601	-0.0	0.0	0.0	0.0
4.935	0.758804	-1.20316	-0.0357471	7.86446	5.43197	0.0616598	1.28134	-0.0	0.0	0.0	0.0
4.94	0.766529	-1.18408	-0.0348397	7.69679	5.5487	0.0587173	1.30711	-0.0	0.0	0.0	0.0
4.945	0.773661	-1.16386	-0.0341526	7.53629	5.658	0.0558696	1.33312	-0.0	0.0	0.0	0.0
4.95	0.780203	-1.14254	-0.0336807	7.38297	5.75974	0.05314	1.35924	-0.0	0.0	0.0	0.0
4.955	0.786156	-1.12015	-0.0334215	7.23831	5.85403	0.050548	1.38785	-0.0	0.0	0.0	0.0
4.96	0.791522	-1.09674	-0.0333655	7.10107	5.94185	0.0481151	1.41521	-0.0	0.0	0.0	0.0
4.965	0.796302	-1.07232	-0.0335155	6.97431	6.02648	0.0458583	1.44793	-0.0	0.0	0.0	0.0
4.97	0.800487	-1.0469	-0.0338771	6.85997	6.10979	0.0437913	1.48894	-0.0	0.0	0.0	0.0
4.975	0.80407	-1.02047	-0.0344454	6.75655	6.1918	0.041929	1.53368	-0.0	0.0	0.0	0.0
4.98	0.807033	-0.993018	-0.0352137	6.66351	6.27232	0.040284	1.58098	3.27574e-05	5.6183	-1.99602e-14	0.1265
4.985	0.809368	-0.964559	-0.0361881	6.5842	6.34898	0.0388716	1.64078	0.000141873	5.63984	-2.00367e-14	0.1265
4.99	0.81106	-0.935093	-0.0373441	6.51065	6.4238	0.0377084	1.69189	-0.0	0.0	0.0	0.0
4.995	0.812094	-0.904621	-0.0386206	6.4355	6.49603	0.0368155	1.71527	-0.0	0.0	0.0	0.0
5.0	0.812448	-0.873137	-0.0400372	6.37351	6.56506	0.0362031	1.74789	-0.0	0.0	0.0	0.0
5.005	0.812112	-0.840656	-0.041603	6.32698	6.63033	0.0358854	1.79662	-0.0	0.0	0.0	0.0
5.01	0.811076	-0.807194	-0.0433001	6.29131	6.6913	0.0358784	1.85004	-0.0	0.0	0.0	0.0
5.015	0.809334	-0.77277	-0.0452551	6.30794	6.75121	0.0361818	1.23368	-0.0	0.0	0.0	0.0
5.02	0.806903	-0.737423	-0.0480774	6.45439	6.79901	0.0367403	2.26314	-0.0	0.0	0.0	0.0
5.025	0.803722	-0.701177	-0.0504885	6.38881	6.83456	0.0376969	2.28377	-0.0	0.0	0.0	0.0
5.03	0.799799	-0.664083	-0.0523984	6.2639	6.86821	0.0390763	1.9995	-0.0	0.0	0.0	0.0
5.035	0.795149	-0.626163	-0.0543238	6.24855	6.90009	0.0408271	1.89252	-0.0	0.0	0.0	0.0
5.04	0.789791	-0.587469	-0.056498	6.37618	6.92421	0.0429268	2.02054	-0.0	0.0	0.0	0.0
5.045	0.783754	-0.548079	-0.0587526	6.56984	6.93952	0.045396	2.19497	-0.0	0.0	0.0	0.0
5.05	0.777449	-0.508266	-0.0610961	6.81719	6.94995	0.0482803	2.43104	-0.0	0.0	0.0	0.0
5.055	0.770923	-0.468123	-0.0631972	6.99648	6.94428	0.0516165	2.48448	-0.0	0.0	0.0	0.0
5.06	0.764106	-0.427708	-0.0648673	7.09855	6.92574	0.0554134	2.35904	-0.0	0.0	0.0	0.0
5.065	0.756953	-0.387073	-0.0662284	7.18514	6.89651	0.0596349	2.20891	-0.0	0.0	0.0	0.0
5.07	0.749458	-0.34629	-0.0674626	7.29635	6.85527	0.0642398	2.14308	-0.0	0.0	0.0	0.0
5.075	0.74162	-0.305455	-0.0686114	7.41833	6.79612	0.0691984	2.13757	-0.0	0.0	0.0	0.0
5.08	0.733437	-0.264687	-0.0695937	7.51782	6.71466	0.0744945	2.12872	-0.0	0.0	0.0	0.0
5.085	0.72491	-0.224105	-0.0703097	7.57201	6.61215	0.0801089	2.06937	-0.0	0.0	0.0	0.0
5.09	0.716056	-0.183827	-0.0707288	7.58463	6.4906	0.086013	1.97057	-0.0	0.0	0.0	0.0
5.095	0.706902	-0.143962	-0.0708734	7.57178	6.35428	0.0921664	1.86228	-0.0	0.0	0.0	0.0
5.1	0.697485	-0.1046	-0.0707818	7.54781	6.21053	0.098523	1.75599	-0.0	0.0	0.0	0.0
5.105	0.689229	-0.0691911	-0.0677518	6.74	4.67985	0.104995	-0.268911	-0.0	0.0	0.0	0.0
5.11	0.686814	-0.0490945	-0.0555543	4.44542	3.04185	0.110854	-5.53537	-0.0	0.0	0.0	0.0
5.115	0.688048	-0.0384393	-0.045821	4.14388	2.1542	0.115138	-5.02325	-0.0	0.0	0.0	0.0
5.12	0.691195	-0.0330716	-0.0412035	5.02844	1.5839	0.117946	-1.99819	-0.0	0.0	0.0	0.0
5.125	0.695299	-0.0310278	-0.0382852	5.72173	1.17939	0.119927	-0.1339	-0.0	0.0	0.0	0.0
5.13	0.699749	-0.0310722	-0.0347203	5.87286	0.899788	0.121515	0.18011	-0.0	0.0	0.0	0.0
5.135	0.704123	-0.032251	-0.0305106	5.77417	0.714769	0.122823	-0.0385862	-0.0	0.0	0.0	0.0
5.14	0.70817	-0.0339671	-0.0263939	5.70267	0.583956	0.123827	-0.0763502	-0.0	0.0	0.0	0.0
5.145	0.711754	-0.0359128	-0.0226634	5.68753	0.477232	0.124524	0.0653607	-0.0	0.0	0.0	0.0
5.15	0.714808	-0.0379487	-0.0191934	5.65623	0.381285	0.124945	0.16839	-0.0	0.0	0.0	0.0
5.155	0.717283	-0.0399966	-0.0158534	5.58269	0.292365	0.125109	0.176908	-0.0	0.0	0.0	0.0
5.16	0.719162	-0.0420055	-0.0126501	5.48544	0.208455	0.125024	0.148925	-0.0	0.0	0.0	0.0
5.165	0.720445	-0.0439514	-0.0096543	5.38677	0.127352	0.124681	0.140034	-0.0	0.0	0.0	0.0
5.17	0.721145	-0.0458264	-0.00690776	5.29053	0.0477102	0.12408	0.154417	-0.0	0.0	0.0	0.0
5.175	0.721272	-0.0476255	-0.00441376	5.19149	-0.0309176	0.123223	0.175503	-0.0	0.0	0.0	0.0
5.18	0.720836	-0.0493446	-0.00216142	5.08453	-0.108802	0.122115	0.18925	-0.0	0.0	0.0	0.0
5.185	0.719843	-0.0509798	-0.000148852	4.97073	-0.186054	0.120759	0.198354	-0.0	0.0	0.0	0.0
5.19	0.718298	-0.0525291	0.0016201	4.85206	-0.262914	0.119158	0.206793	-0.0	0.0	0.0	0.0
5.195	0.71621	-0.0539929	0.00314439	4.72944	-0.339514	0.117313	0.215337	-0.0	0.0	0.0	0.0
5.2	0.713584	-0.0553726	0.00442423	4.60462	-0.415875	0.115228	0.22674	-0.0	0.0	0.0	0.0
5.205	0.710422	-0.0566677	0.00546729	4.47712	-0.491894	0.112904	0.237295	-0.0	0.0	0.0	0.0
5.21	0.706729	-0.0578767	0.00628879	4.34564	-0.567873	0.110346	0.240691	-0.0	0.0	0.0	0.0
5.215	0.702501	-0.0590031	0.00688712	4.21566	-0.643893	0.107555	0.248924	-0.0	0.0	0.0	0.0
5.22	0.697753	-0.0600548	0.00726403	4.08823	-0.719767	0.104533	0.262433	-0.0	0.0	0.0	0.0
5.225	0.692497	-0.0610386	0.00742708	3.96364	-0.795275	0.101286	0.279059	-0.0	0.0	0.0	0.0
5.23	0.686745	-0.0619603	0.00738639	3.84229	-0.870248	0.097818	0.296901	-0.0	0.0	0.0	0.0
5.235	0.680512	-0.0628262	0.00715401	3.72537	-0.944411	0.0941366	0.314931	-0.0	0.0	0.0	0.0
5.24	0.673815	-0.0636536	0.00662701	3.64504	-1.02991	0.0902303	0.418768	0.0299538	6.10328	-2.16832e-14	0.10642
5.245	0.666825	-0.0649319	0.00144976	4.50301	-1.2656	0.0854287	3.03633	0.150575	6.10512	-2.16898e-14	0.10642
5.25	0.659951	-0.0678351	-0.0175184	6.60507	-1.6292	0.0782989	6.6043	0.293626	6.10811	-2.17004e-14	0.10642
5.255	0.653359	-0.070959	-0.050391	8.21468	-1.37559	0.0693076	8.21468	0.395657	6.11057	-2.17091e-14	0.10642
5.26	0.647416	-0.0730236	-0.0936271	9.3599	-1.12386	0.0594649	9.3599	0.424784	6.11224	-2.1715e-14	0.10642
5.265	0.642656	-0.0747992	-0.147205	10.334	-0.96617	0.0487625	10.334	0.392628	6.11406	-2.17215e-14	0.10642
5.27	0.639279	-0.0770187	-0.208917	10.9297	-0.918617	0.037388	10.9297	0.333038	6.11601	-2.17284e-14	0.10642
5.275	0.637195	-0.0801342	-0.275613	11.6826	-0.961336	0.0256449	11.6826	0.274367	6.11806	-2.17357e-14	0.10642
5.28	0.636168	-0.0845225	-0.342609	13.4939	-1.29655	0.014015	13.4939	0.63233	6.2379	-2.21615e-14	0.117762
5.285	0.637683	-0.0995015	-0.351893	8.41548	-4.02841	0.00807225	8.41548	1.29682	6.194	-2.20055e-14	0.113446
5.29	0.643298	-0.125415	-0.315396	2.74394	-4.37221	0.00685157	2.74394	1.50218	6.17268	-2.19298e-14	0.111365
5.295	0.652332	-0.154084	-0.283106	2.51338	-4.41809	0.00595171	2.51338	1.55241	6.17325	-2.19318e-14	0.11146
5.3	0.664651	-0.185756	-0.2535	3.80776	-4.58395	0.00552329	3.80776	1.4169	6.17087	-2.19233e-14	0.111228
5.305	0.680022	-0.220541	-0.224489	5.37193	-4.74184	0.00577408	5.37193	1.17038	6.16676	-2.19087e-14	0.110808
5.31	0.697487	-0.257586	-0.195644	6.74091	-4.83648	0.00666988	6.74091	0.908695	6.16118	-2.18889e-14	0.110229
5.315	0.715666	-0.295318	-0.167296	7.71541	-4.73139	0.00805287	7.71541	0.701529	6.1559	-2.18702e-14	0.109754
5.32	0.732602	-0.330859	-0.141096	8.60567	-4.47496	0.00961178	8.60567	0.578941	6.15062	-2.18514e-14	0.109222
5.325	0.747504	-0.363496	-0.116132	9.16259	-4.22534	0.0112754	9.16259	0.5028	6.14342	-2.18258e-14	0.108493
5.33	0.759915	-0.392656	-0.0928389	9.64062	-3.88352	0.0128814	9.64062	0.461004	6.13757	-2.1805e-14	0.107945
5.335	0.769345	-0.417487	-0.072529	10.3434	-3.49533	0.014182	9.79344	0.443045	6.1331	-2.17892e-14	0.107503
5.34	0.775684	-0.437609	-0.0573339	11.7548	-3.01059	0.0148553	6.44747	0.422595	6.13427	-2.17933e-14	0.107573
5.345	0.778928	-0.452636	-0.0493684	14.0442	-2.55115	0.0146188	8.92607	0.443073	6.14137	-2.18185e-14	0.108276
5.35	0.779238	-0.463398	-0.0432055	15.3647	-2.28589	0.0140378	10.5929	0.508683	6.14731	-2.18396e-14	0.108835
5.355	0.777045	-0.470968	-0.0351262	15.1203	-2.10182	0.0135278	9.90112	0.579541	6.14957	-2.18477e-14	0.109019
5.36	0.772928	-0.475947	-0.0261496	14.2918	-1.91286	0.0130209	8.67599	0.648118	6.15229	-2.18573e-14	0.109258
5.365	0.767409	-0.478771	-0.0177466	13.551	-1.73973	0.0124025	7.07967	0.717761	6.15655	-2.18725e-14	0.109654
5.37	0.760996	-0.480041	-0.0101836	12.9215	-1.62022	0.0116889	5.46068	0.786326	6.16099	-2.18882e-14	0.110071
5.375	0.754197	-0.48048	-0.00297343	12.2227	-1.55401	0.0109784	3.58888	0.843972	6.16485	-2.19019e-14	0.110434
5.38	0.74744	-0.480674	0.00424382	11.3945	-1.52848	0.0103475	2.02483	0.885408	6.16757	-2.19116e-14	0.11069
5.385	0.740989	-0.480978	0.011609	10.4814	-1.51819	0.00983188	0.569499	0.910835	6.16965	-2.1919e-14	0.110886
5.39	0.734972	-0.481514	0.0189303	9.61292	-1.50649	0.00941701	-0.853277	0.924755	6.17167	-2.19262e-14	0.111076
5.395	0.729397	-0.48226	0.0260318	8.85105	-1.49002	0.00907644	-2.08714	0.93227	6.17361	-2.19331e-14	0.111259
5.4	0.724215	-0.483152	0.0329028	8.18058	-1.46783	0.00879627	-3.31973	0.936807	6.1754	-2.19394e-14	0.111425
5.405	0.719353	-0.484085	0.0394748	7.60513	-1.43729	0.00855449	-4.55073	0.941017	6.17727	-2.19461e-14	0.111598
5.41	0.714729	-0.484963	0.0457518	7.10035	-1.40164	0.00833733	-5.66779	0.946401	6.17893	-2.1952e-14	0.11175
5.415	0.710267	-0.485696	0.0517914	6.63912	-1.36084	0.00814015	-6.68415	0.95298	6.18039	-2.19572e-14	0.111881
5.42	0.705887	-0.48619	0.0576347	6.21028	-1.3142	0.00795959	-7.60562	0.961013	6.18161	-2.19615e-14	0.111988
5.425	0.701516	-0.486361	0.0633057	5.81111	-1.26344	0.00779212	-8.52419	0.970916	6.18266	-2.19652e-14	0.112076
5.43	0.697094	-0.486157	0.068799	5.44581	-1.21092	0.0076301	-9.49038	0.983114	6.18361	-2.19686e-14	0.112156
5.435	0.692582	-0.485556	0.0741049	5.11454	-1.15981	0.00746791	-10.4544	0.996337	6.18452	-2.19718e-14	0.112229
5.44	0.687963	-0.484568	0.0792344	4.81121	-1.11017	0.00730793	-11.3843	1.00879	6.18536	-2.19748e-14	0.112297
5.445	0.683219	-0.483189	0.0841906	4.53378	-1.06214	0.00715493	-12.2424	1.01935	6.18609	-2.19774e-14	0.112355
5.45	0.678333	-0.481421	0.0889845	4.27834	-1.01668	0.00701473	-13.0455	1.02778	6.18673	-2.19797e-14	0.112403
5.455	0.673294	-0.479287	0.0936165	4.04386	-0.974972	0.00688927	-13.8459	1.03449	6.18735	-2.19819e-14	0.11245
5.46	0.668095	-0.476819	0.0980737	3.83181	-0.937314	0.00677633	-14.6585	1.03986	6.188	-2.19842e-14	0.112501
5.465	0.662725	-0.474047	0.102344	3.64106	-0.903992	0.00667317	-15.4702	1.04386	6.1887	-2.19867e-14	0.112557
5.47	0.657175	-0.470994	0.106422	3.46956	-0.874358	0.00657852	-16.2578	1.04627	6.18944	-2.19893e-14	0.112618
5.475	0.651435	-0.467685	0.110318	3.31149	-0.847749	0.00649334	-17.015	1.0469	6.19019	-2.1992e-14	0.112681
5.48	0.645496	-0.464134	0.114042	3.16455	-0.823529	0.00641829	-17.7504	1.04601	6.19097	-2.19947e-14	0.112747
5.485	0.639344	-0.460349	0.117595	3.02874	-0.801309	0.00635268	-18.4786	1.04382	6.19182	-2.19977e-14	0.112819
5.49	0.632971	-0.456331	0.120961	2.90804	-0.777682	0.00629648	-19.1984	1.039	6.19276	-2.20011e-14	0.112901
5.495	0.626362	-0.452067	0.124134	2.79934	-0.755604	0.00625057	-19.9135	1.03353	6.19369	-2.20044e-14	0.112982
5.5	0.619485	-0.447558	0.127145	2.69502	-0.73723	0.00621097	-20.6419	1.02898	6.19463	-2.20077e-14	0.113064
